SPACEXODC_L_00001189-01
1 18460U 26994UC  26075.70053241  .00000000  00000+0  00000-0 0  9990
2 18460  30.0000 200.8309 0000000   0.0000  17.8516 15.55740824    16
SPACEXODC_L_00001189-02
1 18461U 25482MR  26075.70053241  .00000000  00000+0  00000-0 0  9992
2 18461  30.0000 200.8309 0000000   0.0000  25.8516 15.55740824    16
SPACEXODC_L_00001189-03
1 18462U 26797PB  26075.70053241  .00000000  00000+0  00000-0 0  9993
2 18462  30.0000 200.8309 0000000   0.0000  33.8516 15.55740824    16
SPACEXODC_L_00001189-04
1 18463U 22895QS  26075.70053241  .00000000  00000+0  00000-0 0  9999
2 18463  30.0000 200.8309 0000000   0.0000  41.8516 15.55740824    16
SPACEXODC_L_00001189-05
1 18464U 25817WH  26075.70053241  .00000000  00000+0  00000-0 0  9997
2 18464  30.0000 200.8309 0000000   0.0000  49.8516 15.55740824    15
SPACEXODC_L_00001189-06
1 18465U 23505MQ  26075.70053241  .00000000  00000+0  00000-0 0  9990
2 18465  30.0000 200.8309 0000000   0.0000  57.8516 15.55740824    15
SPACEXODC_L_00001189-07
1 18466U 26553FR  26075.70053241  .00000000  00000+0  00000-0 0  9997
2 18466  30.0000 200.8309 0000000   0.0000  65.8516 15.55740824    15
SPACEXODC_L_00001189-08
1 18467U 25696ZI  26075.70053241  .00000000  00000+0  00000-0 0  9995
2 18467  30.0000 200.8309 0000000   0.0000  73.8516 15.55740824    15
SPACEXODC_L_00001189-09
1 18468U 24547GW  26075.70053241  .00000000  00000+0  00000-0 0  9990
2 18468  30.0000 200.8309 0000000   0.0000  81.8516 15.55740824    15
SPACEXODC_L_00001189-10
1 18469U 23198NC  26075.70053241  .00000000  00000+0  00000-0 0  9992
2 18469  30.0000 200.8309 0000000   0.0000  89.8516 15.55740824    14
SPACEXODC_L_00001189-11
1 18470U 25221ET  26075.70053241  .00000000  00000+0  00000-0 0  9993
2 18470  30.0000 200.8309 0000000   0.0000  97.8516 15.55740824    15
SPACEXODC_L_00001189-12
1 18471U 23690OU  26075.70053241  .00000000  00000+0  00000-0 0  9992
2 18471  30.0000 200.8309 0000000   0.0000 105.8516 15.55740824    16
SPACEXODC_L_00001189-13
1 18472U 26919IT  26075.70053241  .00000000  00000+0  00000-0 0  9990
2 18472  30.0000 200.8309 0000000   0.0000 113.8516 15.55740824    16
SPACEXODC_L_00001189-14
1 18473U 25573QB  26075.70053241  .00000000  00000+0  00000-0 0  9996
2 18473  30.0000 200.8309 0000000   0.0000 121.8516 15.55740824    16
SPACEXODC_L_00001189-15
1 18474U 22438FY  26075.70053241  .00000000  00000+0  00000-0 0  9994
2 18474  30.0000 200.8309 0000000   0.0000 129.8516 15.55740824    15
SPACEXODC_L_00001189-16
1 18475U 25733JP  26075.70053241  .00000000  00000+0  00000-0 0  9996
2 18475  30.0000 200.8309 0000000   0.0000 137.8516 15.55740824    15
SPACEXODC_L_00001189-17
1 18476U 26764SJ  26075.70053241  .00000000  00000+0  00000-0 0  9992
2 18476  30.0000 200.8309 0000000   0.0000 145.8516 15.55740824    15
SPACEXODC_L_00001189-18
1 18477U 25835CK  26075.70053241  .00000000  00000+0  00000-0 0  9991
2 18477  30.0000 200.8309 0000000   0.0000 153.8516 15.55740824    15
SPACEXODC_L_00001189-19
1 18478U 23713MA  26075.70053241  .00000000  00000+0  00000-0 0  9995
2 18478  30.0000 200.8309 0000000   0.0000 161.8516 15.55740824    15
SPACEXODC_L_00001189-20
1 18479U 25979UU  26075.70053241  .00000000  00000+0  00000-0 0  9992
2 18479  30.0000 200.8309 0000000   0.0000 169.8516 15.55740824    14
SPACEXODC_L_00001189-21
1 18480U 22221IK  26075.70053241  .00000000  00000+0  00000-0 0  9991
2 18480  30.0000 200.8309 0000000   0.0000 177.8516 15.55740824    15
SPACEXODC_L_00001189-22
1 18481U 22530HG  26075.70053241  .00000000  00000+0  00000-0 0  9995
2 18481  30.0000 200.8309 0000000   0.0000 185.8516 15.55740824    15
SPACEXODC_L_00001189-23
1 18482U 24625OF  26075.70053241  .00000000  00000+0  00000-0 0  9993
2 18482  30.0000 200.8309 0000000   0.0000 193.8516 15.55740824    15
SPACEXODC_L_00001189-24
1 18483U 24297TN  26075.70053241  .00000000  00000+0  00000-0 0  9999
2 18483  30.0000 200.8309 0000000   0.0000 201.8516 15.55740824    16
SPACEXODC_L_00001189-25
1 18484U 25120QM  26075.70053241  .00000000  00000+0  00000-0 0  9996
2 18484  30.0000 200.8309 0000000   0.0000 209.8516 15.55740824    15
SPACEXODC_L_00001189-26
1 18485U 25615NR  26075.70053241  .00000000  00000+0  00000-0 0  9996
2 18485  30.0000 200.8309 0000000   0.0000 217.8516 15.55740824    15
SPACEXODC_L_00001189-27
1 18486U 22188RG  26075.70053241  .00000000  00000+0  00000-0 0  9999
2 18486  30.0000 200.8309 0000000   0.0000 225.8516 15.55740824    15
SPACEXODC_L_00001189-28
1 18487U 23385HK  26075.70053241  .00000000  00000+0  00000-0 0  9990
2 18487  30.0000 200.8309 0000000   0.0000 233.8516 15.55740824    15
SPACEXODC_L_00001189-29
1 18488U 24044EU  26075.70053241  .00000000  00000+0  00000-0 0  9994
2 18488  30.0000 200.8309 0000000   0.0000 241.8516 15.55740824    15
SPACEXODC_L_00001189-30
1 18489U 24381PC  26075.70053241  .00000000  00000+0  00000-0 0  9999
2 18489  30.0000 200.8309 0000000   0.0000 249.8516 15.55740824    14
SPACEXODC_L_00001189-31
1 18490U 22101TH  26075.70053241  .00000000  00000+0  00000-0 0  9999
2 18490  30.0000 200.8309 0000000   0.0000 257.8516 15.55740824    15
SPACEXODC_L_00001189-32
1 18491U 25324CT  26075.70053241  .00000000  00000+0  00000-0 0  9990
2 18491  30.0000 200.8309 0000000   0.0000 265.8516 15.55740824    15
SPACEXODC_L_00001189-33
1 18492U 22570LB  26075.70053241  .00000000  00000+0  00000-0 0  9991
2 18492  30.0000 200.8309 0000000   0.0000 273.8516 15.55740824    15
SPACEXODC_L_00001189-34
1 18493U 24214RZ  26075.70053241  .00000000  00000+0  00000-0 0  9999
2 18493  30.0000 200.8309 0000000   0.0000 281.8516 15.55740824    15
SPACEXODC_L_00001189-35
1 18494U 23760HN  26075.70053241  .00000000  00000+0  00000-0 0  9995
2 18494  30.0000 200.8309 0000000   0.0000 289.8516 15.55740824    14
SPACEXODC_L_00001189-36
1 18495U 24716QC  26075.70053241  .00000000  00000+0  00000-0 0  9998
2 18495  30.0000 200.8309 0000000   0.0000 297.8516 15.55740824    14
SPACEXODC_L_00001189-37
1 18496U 25110OX  26075.70053241  .00000000  00000+0  00000-0 0  9998
2 18496  30.0000 200.8309 0000000   0.0000 305.8516 15.55740824    15
SPACEXODC_L_00001189-38
1 18497U 24115GE  26075.70053241  .00000000  00000+0  00000-0 0  9993
2 18497  30.0000 200.8309 0000000   0.0000 313.8516 15.55740824    15
SPACEXODC_L_00001189-39
1 18498U 24235XX  26075.70053241  .00000000  00000+0  00000-0 0  9997
2 18498  30.0000 200.8309 0000000   0.0000 321.8516 15.55740824    15
SPACEXODC_L_00001189-40
1 18499U 22567BG  26075.70053241  .00000000  00000+0  00000-0 0  9994
2 18499  30.0000 200.8309 0000000   0.0000 329.8516 15.55740824    14
SPACEXODC_L_00001189-41
1 18500U 26494ON  26075.70053241  .00000000  00000+0  00000-0 0  9990
2 18500  30.0000 200.8309 0000000   0.0000 337.8516 15.55740824    16
SPACEXODC_L_00001189-42
1 18501U 26907KT  26075.70053241  .00000000  00000+0  00000-0 0  9990
2 18501  30.0000 200.8309 0000000   0.0000 345.8516 15.55740824    16
SPACEXODC_L_00001189-43
1 18502U 25525WE  26075.70053241  .00000000  00000+0  00000-0 0  9996
2 18502  30.0000 200.8309 0000000   0.0000 353.8516 15.55740824    16
SPACEXODC_L_00001189-44
1 18503U 25971RE  26075.70053241  .00000000  00000+0  00000-0 0  9992
2 18503  30.0000 200.8309 0000000   0.0000   1.8516 15.55740824    17
SPACEXODC_L_00001189-45
1 18504U 22068DQ  26075.70053241  .00000000  00000+0  00000-0 0  9997
2 18504  30.0000 200.8309 0000000   0.0000   9.8516 15.55740824    16
SPACEXODC_L_00001190-01
1 18505U 23278AH  26075.70053241  .00000000  00000+0  00000-0 0  9992
2 18505  30.0000 201.8991 0000000   0.0000  17.9466 15.55740824    19
SPACEXODC_L_00001190-02
1 18506U 25048XG  26075.70053241  .00000000  00000+0  00000-0 0  9990
2 18506  30.0000 201.8991 0000000   0.0000  25.9466 15.55740824    19
SPACEXODC_L_00001190-03
1 18507U 25292NC  26075.70053241  .00000000  00000+0  00000-0 0  9992
2 18507  30.0000 201.8991 0000000   0.0000  33.9466 15.55740824    19
SPACEXODC_L_00001190-04
1 18508U 26658TO  26075.70053241  .00000000  00000+0  00000-0 0  9990
2 18508  30.0000 201.8991 0000000   0.0000  41.9466 15.55740824    19
SPACEXODC_L_00001190-05
1 18509U 26711MH  26075.70053241  .00000000  00000+0  00000-0 0  9991
2 18509  30.0000 201.8991 0000000   0.0000  49.9466 15.55740824    18
SPACEXODC_L_00001190-06
1 18510U 24780IO  26075.70053241  .00000000  00000+0  00000-0 0  9997
2 18510  30.0000 201.8991 0000000   0.0000  57.9466 15.55740824    19
SPACEXODC_L_00001190-07
1 18511U 22595PQ  26075.70053241  .00000000  00000+0  00000-0 0  9990
2 18511  30.0000 201.8991 0000000   0.0000  65.9466 15.55740824    19
SPACEXODC_L_00001190-08
1 18512U 23237VK  26075.70053241  .00000000  00000+0  00000-0 0  9995
2 18512  30.0000 201.8991 0000000   0.0000  73.9466 15.55740824    19
SPACEXODC_L_00001190-09
1 18513U 25589UO  26075.70053241  .00000000  00000+0  00000-0 0  9998
2 18513  30.0000 201.8991 0000000   0.0000  81.9466 15.55740824    19
SPACEXODC_L_00001190-10
1 18514U 25136MD  26075.70053241  .00000000  00000+0  00000-0 0  9997
2 18514  30.0000 201.8991 0000000   0.0000  89.9466 15.55740824    18
SPACEXODC_L_00001190-11
1 18515U 26937XT  26075.70053241  .00000000  00000+0  00000-0 0  9998
2 18515  30.0000 201.8991 0000000   0.0000  97.9466 15.55740824    18
SPACEXODC_L_00001190-12
1 18516U 22750JD  26075.70053241  .00000000  00000+0  00000-0 0  9998
2 18516  30.0000 201.8991 0000000   0.0000 105.9466 15.55740824    19
SPACEXODC_L_00001190-13
1 18517U 22576SI  26075.70053241  .00000000  00000+0  00000-0 0  9995
2 18517  30.0000 201.8991 0000000   0.0000 113.9466 15.55740824    19
SPACEXODC_L_00001190-14
1 18518U 23060GQ  26075.70053241  .00000000  00000+0  00000-0 0  9995
2 18518  30.0000 201.8991 0000000   0.0000 121.9466 15.55740824    19
SPACEXODC_L_00001190-15
1 18519U 24917VU  26075.70053241  .00000000  00000+0  00000-0 0  9998
2 18519  30.0000 201.8991 0000000   0.0000 129.9466 15.55740824    18
